ION SCV-004             
1 50993U 22002K   26068.68892644  .00006538  00000+0  23198-3 0  9998
2 50993  97.2961 128.2294 0007216   1.6783 358.4480 15.29369331230088
STARLINK-33550          
1 62285U 24237U   26068.43523758  .00026957  00000+0  98534-3 0  9990
2 62285  42.9960 217.7377 0000695 245.5691 114.5088 15.27587061 71154
